{"type": "FeatureCollection", "features": [ {"type": "Feature", "properties": {"norad_id": 45358, "name": "COSMOS 2545 (760)", "group": "glo-ops", "lat": -50.79983907685928, "lon": 174.9967461742603, "alt_km": 19105.671234959365, "timestamp": "2025-12-07T14:37:05.466029+00:00", "meta": {"OBJECT_NAME": "COSMOS 2545 (760)", "OBJECT_ID": "2020-018A", "EPOCH": "2025-12-01T04:43:25.038912", "MEAN_MOTION": 2.13102323, "ECCENTRICITY": 0.00119194, "INCLINATION": 64.4762, "RA_OF_ASC_NODE": 319.3749, "ARG_OF_PERICENTER": 248.338, "MEAN_ANOMALY": 111.5456, "EPHEMERIS_TYPE": 0, "CLASSIFICATION_TYPE": "U", "NORAD_CAT_ID": 45358, "ELEMENT_SET_NO": 999, "REV_AT_EPOCH": 4444, "BSTAR": 0, "MEAN_MOTION_DOT": -2.8e-07, "MEAN_MOTION_DDOT": 0}, "tle": {"line1": "1 45358U 20018A   25335.19681758 -.00000028  00000+0  00000+0 0  9998", "line2": "2 45358  64.4762 319.3749 0011919 248.3380 111.5456  2.13102323 44447"}}, "geometry": {"type": "Point", "coordinates": [174.9967461742603, -50.79983907685928]}}, {"type": "Feature", "properties": {"norad_id": 46805, "name": "COSMOS 2547 (705K)", "group": "glo-ops", "lat": 64.1342526453208, "lon": -59.72581785924651, "alt_km": 19134.33882118367, "timestamp": "2025-12-07T14:37:05.466043+00:00", "meta": {"OBJECT_NAME": "COSMOS 2547 (705K)", "OBJECT_ID": "2020-075A", "EPOCH": "2025-12-04T04:48:34.576416", "MEAN_MOTION": 2.13099889, "ECCENTRICITY": 0.0006264, "INCLINATION": 64.5958, "RA_OF_ASC_NODE": 198.9817, "ARG_OF_PERICENTER": 229.2044, "MEAN_ANOMALY": 130.8379, "EPHEMERIS_TYPE": 0, "CLASSIFICATION_TYPE": "U", "NORAD_CAT_ID": 46805, "ELEMENT_SET_NO": 999, "REV_AT_EPOCH": 3975, "BSTAR": 0, "MEAN_MOTION_DOT": 1.01e-06, "MEAN_MOTION_DDOT": 0}, "tle": {"line1": "1 46805U 20075A   25338.20040019  .00000101  00000+0  00000+0 0  9994", "line2": "2 46805  64.5958 198.9817 0006264 229.2044 130.8379  2.13099889 39750"}}, "geometry": {"type": "Point", "coordinates": [-59.72581785924651, 64.1342526453208]}}, {"type": "Feature", "properties": {"norad_id": 52984, "name": "COSMOS 2557 (706K)", "group": "glo-ops", "lat": -28.382594454859145, "lon": -53.78248963074303, "alt_km": 19111.905579183713, "timestamp": "2025-12-07T14:37:05.466055+00:00", "meta": {"OBJECT_NAME": "COSMOS 2557 (706K)", "OBJECT_ID": "2022-075A", "EPOCH": "2025-12-06T05:49:32.114784", "MEAN_MOTION": 2.13101746, "ECCENTRICITY": 0.001371, "INCLINATION": 64.4134, "RA_OF_ASC_NODE": 321.2801, "ARG_OF_PERICENTER": 276.8497, "MEAN_ANOMALY": 82.9895, "EPHEMERIS_TYPE": 0, "CLASSIFICATION_TYPE": "U", "NORAD_CAT_ID": 52984, "ELEMENT_SET_NO": 999, "REV_AT_EPOCH": 2660, "BSTAR": 0, "MEAN_MOTION_DOT": -5.1e-07, "MEAN_MOTION_DDOT": 0}, "tle": {"line1": "1 52984U 22075A   25340.24273281 -.00000051  00000+0  00000+0 0  9992", "line2": "2 52984  64.4134 321.2801 0013710 276.8497  82.9895  2.13101746 26604"}}, "geometry": {"type": "Point", "coordinates": [-53.78248963074303, -28.382594454859145]}}, {"type": "Feature", "properties": {"norad_id": 54031, "name": "COSMOS 2559 (707K)", "group": "glo-ops", "lat": 59.660576651110105, "lon": 86.2669655509024, "alt_km": 19121.17100433208, "timestamp": "2025-12-07T14:37:05.466066+00:00", "meta": {"OBJECT_NAME": "COSMOS 2559 (707K)", "OBJECT_ID": "2022-130A", "EPOCH": "2025-12-03T17:10:26.893920", "MEAN_MOTION": 2.13101235, "ECCENTRICITY": 0.00120262, "INCLINATION": 64.3873, "RA_OF_ASC_NODE": 321.4588, "ARG_OF_PERICENTER": 192.7508, "MEAN_ANOMALY": 167.2215, "EPHEMERIS_TYPE": 0, "CLASSIFICATION_TYPE": "U", "NORAD_CAT_ID": 54031, "ELEMENT_SET_NO": 999, "REV_AT_EPOCH": 2452, "BSTAR": 0, "MEAN_MOTION_DOT": -4.4e-07, "MEAN_MOTION_DDOT": 0}, "tle": {"line1": "1 54031U 22130A   25337.71558905 -.00000044  00000+0  00000+0 0  9998", "line2": "2 54031  64.3873 321.4588 0012026 192.7508 167.2215  2.13101235 24525"}}, "geometry": {"type": "Point", "coordinates": [86.2669655509024, 59.660576651110105]}}, {"type": "Feature", "properties": {"norad_id": 54377, "name": "COSMOS 2564 (761)", "group": "glo-ops", "lat": -40.97333975558553, "lon": 43.28551701395535, "alt_km": 19114.21242549614, "timestamp": "2025-12-07T14:37:05.466078+00:00", "meta": {"OBJECT_NAME": "COSMOS 2564 (761)", "OBJECT_ID": "2022-161A", "EPOCH": "2025-12-05T21:44:52.430496", "MEAN_MOTION": 2.13101969, "ECCENTRICITY": 0.00086841, "INCLINATION": 64.7377, "RA_OF_ASC_NODE": 199.126, "ARG_OF_PERICENTER": 205.8227, "MEAN_ANOMALY": 154.2251, "EPHEMERIS_TYPE": 0, "CLASSIFICATION_TYPE": "U", "NORAD_CAT_ID": 54377, "ELEMENT_SET_NO": 999, "REV_AT_EPOCH": 2351, "BSTAR": 0, "MEAN_MOTION_DOT": 8e-07, "MEAN_MOTION_DDOT": 0}, "tle": {"line1": "1 54377U 22161A   25339.90616239  .00000080  00000+0  00000+0 0  9992", "line2": "2 54377  64.7377 199.1260 0008684 205.8227 154.2251  2.13101969 23515"}}, "geometry": {"type": "Point", "coordinates": [43.28551701395535, -40.97333975558553]}}, {"type": "Feature", "properties": {"norad_id": 57517, "name": "COSMOS 2569 (703K)", "group": "glo-ops", "lat": -32.24449682118953, "lon": -83.9713354415359, "alt_km": 19125.639041046878, "timestamp": "2025-12-07T14:37:05.466089+00:00", "meta": {"OBJECT_NAME": "COSMOS 2569 (703K)", "OBJECT_ID": "2023-114A", "EPOCH": "2025-12-01T16:42:34.469856", "MEAN_MOTION": 2.13103822, "ECCENTRICITY": 0.0010109, "INCLINATION": 65.1883, "RA_OF_ASC_NODE": 79.2867, "ARG_OF_PERICENTER": 287.0179, "MEAN_ANOMALY": 72.8703, "EPHEMERIS_TYPE": 0, "CLASSIFICATION_TYPE": "U", "NORAD_CAT_ID": 57517, "ELEMENT_SET_NO": 999, "REV_AT_EPOCH": 1805, "BSTAR": 0, "MEAN_MOTION_DOT": -1.6e-07, "MEAN_MOTION_DDOT": 0}, "tle": {"line1": "1 57517U 23114A   25335.69623229 -.00000016  00000+0  00000+0 0  9999", "line2": "2 57517  65.1883  79.2867 0010109 287.0179  72.8703  2.13103822 18055"}}, "geometry": {"type": "Point", "coordinates": [-83.9713354415359, -32.24449682118953]}}, {"type": "Feature", "properties": {"norad_id": 63130, "name": "COSMOS 2584 (704K)", "group": "glo-ops", "lat": -49.29814523219077, "lon": 46.49318349633806, "alt_km": 19135.008312631533, "timestamp": "2025-12-07T14:37:05.466100+00:00", "meta": {"OBJECT_NAME": "COSMOS 2584 (704K)", "OBJECT_ID": "2025-042A", "EPOCH": "2025-12-05T08:05:04.392960", "MEAN_MOTION": 2.13102926, "ECCENTRICITY": 0.00075778, "INCLINATION": 64.9722, "RA_OF_ASC_NODE": 79.3982, "ARG_OF_PERICENTER": 214.8728, "MEAN_ANOMALY": 145.0805, "EPHEMERIS_TYPE": 0, "CLASSIFICATION_TYPE": "U", "NORAD_CAT_ID": 63130, "ELEMENT_SET_NO": 999, "REV_AT_EPOCH": 591, "BSTAR": 0, "MEAN_MOTION_DOT": -2.1e-07, "MEAN_MOTION_DDOT": 0}, "tle": {"line1": "1 63130U 25042A   25339.33685640 -.00000021  00000+0  00000+0 0  9995", "line2": "2 63130  64.9722  79.3982 0007577 214.8728 145.0805  2.13102926  5915"}}, "geometry": {"type": "Point", "coordinates": [46.49318349633806, -49.29814523219077]}}, {"type": "Feature", "properties": {"norad_id": 65590, "name": "COSMOS 2596 (708K)", "group": "glo-ops", "lat": 52.87819441910604, "lon": 0.2135842642606375, "alt_km": 19140.31910225553, "timestamp": "2025-12-07T14:37:05.466112+00:00", "meta": {"OBJECT_NAME": "COSMOS 2596 (708K)", "OBJECT_ID": "2025-206B", "EPOCH": "2025-12-05T10:56:18.216960", "MEAN_MOTION": 2.13100168, "ECCENTRICITY": 0.00140237, "INCLINATION": 64.7483, "RA_OF_ASC_NODE": 321.7274, "ARG_OF_PERICENTER": 304.902, "MEAN_ANOMALY": 264.8431, "EPHEMERIS_TYPE": 0, "CLASSIFICATION_TYPE": "U", "NORAD_CAT_ID": 65590, "ELEMENT_SET_NO": 999, "REV_AT_EPOCH": 177, "BSTAR": 0, "MEAN_MOTION_DOT": -5e-07, "MEAN_MOTION_DDOT": 0}, "tle": {"line1": "1 65590U 25206B   25339.45576640 -.00000050  00000+0  00000+0 0  9993", "line2": "2 65590  64.7483 321.7274 0014023 304.9020 264.8431  2.13100168  1778"}}, "geometry": {"type": "Point", "coordinates": [0.2135842642606375, 52.87819441910604]}}]}